SL-16 R/B               
1 25400U 98043G   26017.58223908  .00000031  00000+0  31762-4 0  9994
2 25400  98.8174 330.6101 0010174 157.0348 203.1289 14.26034942431700
SL-16 R/B               
1 25407U 98045B   26017.50536219  .00000252  00000+0  15146-3 0  9999
2 25407  71.0117 289.2136 0005296 110.1114 250.0579 14.16181356419850
ISS (ZARYA)             
1 25544U 98067A   26017.53064126  .00012765  00000+0  23638-3 0  9998
2 25544  51.6334 325.2886 0007793  28.8014 331.3404 15.49353150548402
CZ-4B R/B               
1 25732U 99025C   26017.66839752  .00000055  00000+0  47015-4 0  9996
2 25732  98.6719  63.1361 0037914 130.7520 339.6069 14.18252782380932
OKEAN-O                 
1 25860U 99039A   26017.61741044  .00000630  00000+0  89763-4 0  9999
2 25860  97.9548  78.0003 0001747 105.8853 254.2552 14.80231320426834
SL-16 R/B               
1 25861U 99039B   26017.64568024  .00000455  00000+0  64588-4 0  9991
2 25861  98.0072  76.7904 0016032  65.5292 294.7591 14.81644357429302
DELTA 2 R/B             
1 25876U 99041E   26017.61133537  .00002333  00000+0  41294-3 0  9999
2 25876  51.7622 145.2382 0503477 197.5260 160.7730 14.11564964355811
HELIOS 1B               
1 25977U 99064A   26017.66045253  .00001450  00000+0  16663-3 0  9999
2 25977  98.1745 278.3933 0000737 134.4938 225.6337 14.87447365677670
TERRA                   
1 25994U 99068A   26017.64241990  .00000369  00000+0  84316-4 0  9995
2 25994  97.9695  73.0002 0002179  17.0290 144.8130 14.60946778387625
SL-16 R/B               
1 26070U 00006B   26017.64873406 -.00000243  00000+0 -99125-4 0  9995
2 26070  71.0001 205.1555 0018895 260.4099  99.4889 14.15812630341332
TITAN 4B R/B            
1 26474U 00047B   26017.60378059  .00003305  00000+0  21335-3 0  9995
2 26474  67.9876 184.1086 0036856 100.0102 260.5209 15.09066127385207
ENVISAT                 
1 27386U 02009A   26017.66689401  .00000076  00000+0  38383-4 0  9994
2 27386  98.3649 332.5063 0001156  91.7887  81.2191 14.39013952251830
