CCSDS_OMM_VERS = 2.0
CREATION_DATE  = 
ORIGINATOR     = 

OBJECT_NAME    = SL-16 R/B
OBJECT_ID      = 1998-043G
CENTER_NAME    = EARTH
REF_FRAME      = TEME
TIME_SYSTEM    = UTC
MEAN_ELEMENT_THEORY = SGP/SGP4

EPOCH          = 2026-01-17T13:58:25.456512
MEAN_MOTION    = 14.26034942
ECCENTRICITY   = .00101748
INCLINATION    = 98.8174
RA_OF_ASC_NODE = 330.6101
ARG_OF_PERICENTER = 157.0348
MEAN_ANOMALY   = 203.1289

EPHEMERIS_TYPE = 0
CLASSIFICATION_TYPE = U
NORAD_CAT_ID   = 25400
ELEMENT_SET_NO = 999
REV_AT_EPOCH   = 43170
BSTAR          = .31761853E-4
MEAN_MOTION_DOT = .31E-6
MEAN_MOTION_DDOT = 0

CCSDS_OMM_VERS = 2.0
CREATION_DATE  = 
ORIGINATOR     = 

OBJECT_NAME    = SL-16 R/B
OBJECT_ID      = 1998-045B
CENTER_NAME    = EARTH
REF_FRAME      = TEME
TIME_SYSTEM    = UTC
MEAN_ELEMENT_THEORY = SGP/SGP4

EPOCH          = 2026-01-17T12:07:43.293216
MEAN_MOTION    = 14.16181356
ECCENTRICITY   = .0005296
INCLINATION    = 71.0117
RA_OF_ASC_NODE = 289.2136
ARG_OF_PERICENTER = 110.1114
MEAN_ANOMALY   = 250.0579

EPHEMERIS_TYPE = 0
CLASSIFICATION_TYPE = U
NORAD_CAT_ID   = 25407
ELEMENT_SET_NO = 999
REV_AT_EPOCH   = 41985
BSTAR          = .15145538E-3
MEAN_MOTION_DOT = .252E-5
MEAN_MOTION_DDOT = 0

CCSDS_OMM_VERS = 2.0
CREATION_DATE  = 
ORIGINATOR     = 

OBJECT_NAME    = ISS (ZARYA)
OBJECT_ID      = 1998-067A
CENTER_NAME    = EARTH
REF_FRAME      = TEME
TIME_SYSTEM    = UTC
MEAN_ELEMENT_THEORY = SGP/SGP4

EPOCH          = 2026-01-17T12:44:07.404864
MEAN_MOTION    = 15.49353150
ECCENTRICITY   = .00077933
INCLINATION    = 51.6334
RA_OF_ASC_NODE = 325.2886
ARG_OF_PERICENTER = 28.8014
MEAN_ANOMALY   = 331.3404

EPHEMERIS_TYPE = 0
CLASSIFICATION_TYPE = U
NORAD_CAT_ID   = 25544
ELEMENT_SET_NO = 999
REV_AT_EPOCH   = 54840
BSTAR          = .23638301E-3
MEAN_MOTION_DOT = .12765E-3
MEAN_MOTION_DDOT = 0

CCSDS_OMM_VERS = 2.0
CREATION_DATE  = 
ORIGINATOR     = 

OBJECT_NAME    = CZ-4B R/B
OBJECT_ID      = 1999-025C
CENTER_NAME    = EARTH
REF_FRAME      = TEME
TIME_SYSTEM    = UTC
MEAN_ELEMENT_THEORY = SGP/SGP4

EPOCH          = 2026-01-17T16:02:29.545728
MEAN_MOTION    = 14.18252782
ECCENTRICITY   = .00379145
INCLINATION    = 98.6719
RA_OF_ASC_NODE = 63.1361
ARG_OF_PERICENTER = 130.7520
MEAN_ANOMALY   = 339.6069

EPHEMERIS_TYPE = 0
CLASSIFICATION_TYPE = U
NORAD_CAT_ID   = 25732
ELEMENT_SET_NO = 999
REV_AT_EPOCH   = 38093
BSTAR          = .47014514E-4
MEAN_MOTION_DOT = .55E-6
MEAN_MOTION_DDOT = 0

CCSDS_OMM_VERS = 2.0
CREATION_DATE  = 
ORIGINATOR     = 

OBJECT_NAME    = OKEAN-O
OBJECT_ID      = 1999-039A
CENTER_NAME    = EARTH
REF_FRAME      = TEME
TIME_SYSTEM    = UTC
MEAN_ELEMENT_THEORY = SGP/SGP4

EPOCH          = 2026-01-17T14:49:04.262016
MEAN_MOTION    = 14.80231320
ECCENTRICITY   = .00017479
INCLINATION    = 97.9548
RA_OF_ASC_NODE = 78.0003
ARG_OF_PERICENTER = 105.8853
MEAN_ANOMALY   = 254.2552

EPHEMERIS_TYPE = 0
CLASSIFICATION_TYPE = U
NORAD_CAT_ID   = 25860
ELEMENT_SET_NO = 999
REV_AT_EPOCH   = 42683
BSTAR          = .89763222E-4
MEAN_MOTION_DOT = .63E-5
MEAN_MOTION_DDOT = 0

CCSDS_OMM_VERS = 2.0
CREATION_DATE  = 
ORIGINATOR     = 

OBJECT_NAME    = SL-16 R/B
OBJECT_ID      = 1999-039B
CENTER_NAME    = EARTH
REF_FRAME      = TEME
TIME_SYSTEM    = UTC
MEAN_ELEMENT_THEORY = SGP/SGP4

EPOCH          = 2026-01-17T15:29:46.772736
MEAN_MOTION    = 14.81644357
ECCENTRICITY   = .00160325
INCLINATION    = 98.0072
RA_OF_ASC_NODE = 76.7904
ARG_OF_PERICENTER = 65.5292
MEAN_ANOMALY   = 294.7591

EPHEMERIS_TYPE = 0
CLASSIFICATION_TYPE = U
NORAD_CAT_ID   = 25861
ELEMENT_SET_NO = 999
REV_AT_EPOCH   = 42930
BSTAR          = .64588268E-4
MEAN_MOTION_DOT = .455E-5
MEAN_MOTION_DDOT = 0

CCSDS_OMM_VERS = 2.0
CREATION_DATE  = 
ORIGINATOR     = 

OBJECT_NAME    = DELTA 2 R/B
OBJECT_ID      = 1999-041E
CENTER_NAME    = EARTH
REF_FRAME      = TEME
TIME_SYSTEM    = UTC
MEAN_ELEMENT_THEORY = SGP/SGP4

EPOCH          = 2026-01-17T14:40:19.375968
MEAN_MOTION    = 14.11564964
ECCENTRICITY   = .05034778
INCLINATION    = 51.7622
RA_OF_ASC_NODE = 145.2382
ARG_OF_PERICENTER = 197.5260
MEAN_ANOMALY   = 160.7730

EPHEMERIS_TYPE = 0
CLASSIFICATION_TYPE = U
NORAD_CAT_ID   = 25876
ELEMENT_SET_NO = 999
REV_AT_EPOCH   = 35581
BSTAR          = .41293761E-3
MEAN_MOTION_DOT = .2333E-4
MEAN_MOTION_DDOT = 0

CCSDS_OMM_VERS = 2.0
CREATION_DATE  = 
ORIGINATOR     = 

OBJECT_NAME    = HELIOS 1B
OBJECT_ID      = 1999-064A
CENTER_NAME    = EARTH
REF_FRAME      = TEME
TIME_SYSTEM    = UTC
MEAN_ELEMENT_THEORY = SGP/SGP4

EPOCH          = 2026-01-17T15:51:03.098592
MEAN_MOTION    = 14.87447365
ECCENTRICITY   = .00007374
INCLINATION    = 98.1745
RA_OF_ASC_NODE = 278.3933
ARG_OF_PERICENTER = 134.4938
MEAN_ANOMALY   = 225.6337

EPHEMERIS_TYPE = 0
CLASSIFICATION_TYPE = U
NORAD_CAT_ID   = 25977
ELEMENT_SET_NO = 999
REV_AT_EPOCH   = 67767
BSTAR          = .16662744E-3
MEAN_MOTION_DOT = .145E-4
MEAN_MOTION_DDOT = 0

CCSDS_OMM_VERS = 2.0
CREATION_DATE  = 
ORIGINATOR     = 

OBJECT_NAME    = TERRA
OBJECT_ID      = 1999-068A
CENTER_NAME    = EARTH
REF_FRAME      = TEME
TIME_SYSTEM    = UTC
MEAN_ELEMENT_THEORY = SGP/SGP4

EPOCH          = 2026-01-17T15:25:05.079360
MEAN_MOTION    = 14.60946778
ECCENTRICITY   = .00021799
INCLINATION    = 97.9695
RA_OF_ASC_NODE = 73.0002
ARG_OF_PERICENTER = 17.0290
MEAN_ANOMALY   = 144.8130

EPHEMERIS_TYPE = 0
CLASSIFICATION_TYPE = U
NORAD_CAT_ID   = 25994
ELEMENT_SET_NO = 999
REV_AT_EPOCH   = 38762
BSTAR          = .84316334E-4
MEAN_MOTION_DOT = .369E-5
MEAN_MOTION_DDOT = 0

CCSDS_OMM_VERS = 2.0
CREATION_DATE  = 
ORIGINATOR     = 

OBJECT_NAME    = SL-16 R/B
OBJECT_ID      = 2000-006B
CENTER_NAME    = EARTH
REF_FRAME      = TEME
TIME_SYSTEM    = UTC
MEAN_ELEMENT_THEORY = SGP/SGP4

EPOCH          = 2026-01-17T15:34:10.622784
MEAN_MOTION    = 14.15812630
ECCENTRICITY   = .00188957
INCLINATION    = 71.0001
RA_OF_ASC_NODE = 205.1555
ARG_OF_PERICENTER = 260.4099
MEAN_ANOMALY   = 99.4889

EPHEMERIS_TYPE = 0
CLASSIFICATION_TYPE = U
NORAD_CAT_ID   = 26070
ELEMENT_SET_NO = 999
REV_AT_EPOCH   = 34133
BSTAR          = -.99124659E-4
MEAN_MOTION_DOT = -.243E-5
MEAN_MOTION_DDOT = 0

CCSDS_OMM_VERS = 2.0
CREATION_DATE  = 
ORIGINATOR     = 

OBJECT_NAME    = TITAN 4B R/B
OBJECT_ID      = 2000-047B
CENTER_NAME    = EARTH
REF_FRAME      = TEME
TIME_SYSTEM    = UTC
MEAN_ELEMENT_THEORY = SGP/SGP4

EPOCH          = 2026-01-17T14:29:26.642976
MEAN_MOTION    = 15.09066127
ECCENTRICITY   = .00368565
INCLINATION    = 67.9876
RA_OF_ASC_NODE = 184.1086
ARG_OF_PERICENTER = 100.0102
MEAN_ANOMALY   = 260.5209

EPHEMERIS_TYPE = 0
CLASSIFICATION_TYPE = U
NORAD_CAT_ID   = 26474
ELEMENT_SET_NO = 999
REV_AT_EPOCH   = 38520
BSTAR          = .21335087E-3
MEAN_MOTION_DOT = .3305E-4
MEAN_MOTION_DDOT = 0

CCSDS_OMM_VERS = 2.0
CREATION_DATE  = 
ORIGINATOR     = 

OBJECT_NAME    = ENVISAT
OBJECT_ID      = 2002-009A
CENTER_NAME    = EARTH
REF_FRAME      = TEME
TIME_SYSTEM    = UTC
MEAN_ELEMENT_THEORY = SGP/SGP4

EPOCH          = 2026-01-17T16:00:19.642464
MEAN_MOTION    = 14.39013952
ECCENTRICITY   = .00011569
INCLINATION    = 98.3649
RA_OF_ASC_NODE = 332.5063
ARG_OF_PERICENTER = 91.7887
MEAN_ANOMALY   = 81.2191

EPHEMERIS_TYPE = 0
CLASSIFICATION_TYPE = U
NORAD_CAT_ID   = 27386
ELEMENT_SET_NO = 999
REV_AT_EPOCH   = 25183
BSTAR          = .38382962E-4
MEAN_MOTION_DOT = .76E-6
MEAN_MOTION_DDOT = 0

